start=new Date('2022-05-27T00:00:00.000Z').valueOf();
sats=[{"PERIOD":"95.593","CENTER_NAME":"EARTH","TLE_LINE1":"1 45412U 20019BE  22146.91100603 -.00000150  00000-0  88408-5 0  9993","RCS_SIZE":"LARGE","ARG_OF_PERICENTER":"59.1109","REF_FRAME":"TEME","EPHEMERIS_TYPE":"0","OBJECT_TYPE":"PAYLOAD","MEAN_ANOMALY":"301.0035","RA_OF_ASC_NODE":"224.1536","OBJECT_NAME":"STARLINK-1296","MEAN_MOTION":"15.06392330","TLE_LINE2":"2 45412  53.0530 224.1536 0001575  59.1109 301.0035 15.06392330121446","DECAY_DATE":null,"EPOCH":"2022-05-26T21:51:50.920992","REV_AT_EPOCH":"12144","LAUNCH_DATE":"2020-03-18","CLASSIFICATION_TYPE":"U","INCLINATION":"53.0530","APOAPSIS":"548.328","ECCENTRICITY":"0.00015750","NORAD_CAT_ID":"45412","FILE":"3466271","COUNTRY_CODE":"US","PERIAPSIS":"546.146","BSTAR":"0.00000884080000","MEAN_MOTION_DDOT":"0.0000000000000","SEMIMAJOR_AXIS":"6925.372","GP_ID":"204625001","SITE":"AFETR","MEAN_MOTION_DOT":"-0.00000150","OBJECT_ID":"2020-019BE","MEAN_ELEMENT_THEORY":"SGP4","ELEMENT_SET_NO":"999","TIME_SYSTEM":"UTC"},{"GP_ID":"204564314","SEMIMAJOR_AXIS":"6925.349","MEAN_MOTION_DOT":"0.00005522","SITE":"AFETR","MEAN_ELEMENT_THEORY":"SGP4","TIME_SYSTEM":"UTC","ELEMENT_SET_NO":"999","OBJECT_ID":"2020-019BF","NORAD_CAT_ID":"45413","APOAPSIS":"548.249","ECCENTRICITY":"0.00014940","MEAN_MOTION_DDOT":"0.0000000000000","BSTAR":"0.00038934000000","PERIAPSIS":"546.180","COUNTRY_CODE":"US","FILE":"3465414","EPOCH":"2022-05-26T13:01:04.472832","DECAY_DATE":null,"MEAN_MOTION":"15.06399749","TLE_LINE2":"2 45413  53.0538 225.8016 0001494  71.9676 288.1475 15.06399749121485","CLASSIFICATION_TYPE":"U","INCLINATION":"53.0538","REV_AT_EPOCH":"12148","LAUNCH_DATE":"2020-03-18","RCS_SIZE":"LARGE","TLE_LINE1":"1 45413U 20019BF  22146.54241288  .00005522  00000-0  38934-3 0  9992","ARG_OF_PERICENTER":"71.9676","REF_FRAME":"TEME","PERIOD":"95.592","CENTER_NAME":"EARTH","OBJECT_NAME":"STARLINK-1298","OBJECT_TYPE":"PAYLOAD","EPHEMERIS_TYPE":"0","RA_OF_ASC_NODE":"225.8016","MEAN_ANOMALY":"288.1475"},{"OBJECT_NAME":"STARLINK-1309","MEAN_ANOMALY":"290.4704","RA_OF_ASC_NODE":"225.8655","EPHEMERIS_TYPE":"0","OBJECT_TYPE":"PAYLOAD","TLE_LINE1":"1 45414U 20019BG  22146.52766560  .00003253  00000-0  23710-3 0  9991","RCS_SIZE":"LARGE","REF_FRAME":"TEME","ARG_OF_PERICENTER":"69.6457","CENTER_NAME":"EARTH","PERIOD":"95.591","CLASSIFICATION_TYPE":"U","INCLINATION":"53.0531","LAUNCH_DATE":"2020-03-18","REV_AT_EPOCH":"12137","DECAY_DATE":null,"EPOCH":"2022-05-26T12:39:50.307840","TLE_LINE2":"2 45414  53.0531 225.8655 0001601  69.6457 290.4704 15.06411386121370","MEAN_MOTION":"15.06411386","BSTAR":"0.00023710000000","MEAN_MOTION_DDOT":"0.0000000000000","FILE":"3465646","COUNTRY_CODE":"US","PERIAPSIS":"546.070","NORAD_CAT_ID":"45414","ECCENTRICITY":"0.00016010","APOAPSIS":"548.287","ELEMENT_SET_NO":"999","TIME_SYSTEM":"UTC","MEAN_ELEMENT_THEORY":"SGP4","OBJECT_ID":"2020-019BG","SITE":"AFETR","MEAN_MOTION_DOT":"0.00003253","SEMIMAJOR_AXIS":"6925.314","GP_ID":"204586288"},{"TLE_LINE2":"2 45415  53.0541 224.2680 0002314  48.0104 312.1082 15.06410076121461","MEAN_MOTION":"15.06410076","EPOCH":"2022-05-26T21:14:42.347040","DECAY_DATE":null,"LAUNCH_DATE":"2020-03-18","REV_AT_EPOCH":"12146","CLASSIFICATION_TYPE":"U","INCLINATION":"53.0541","CENTER_NAME":"EARTH","PERIOD":"95.592","TLE_LINE1":"1 45415U 20019BH  22146.88521235  .00012247  00000-0  83940-3 0  9993","RCS_SIZE":"LARGE","ARG_OF_PERICENTER":"48.0104","REF_FRAME":"TEME","RA_OF_ASC_NODE":"224.2680","MEAN_ANOMALY":"312.1082","OBJECT_TYPE":"PAYLOAD","EPHEMERIS_TYPE":"0","OBJECT_NAME":"STARLINK-1316","MEAN_MOTION_DOT":"0.00012247","SITE":"AFETR","SEMIMAJOR_AXIS":"6925.318","GP_ID":"204624250","OBJECT_ID":"2020-019BH","TIME_SYSTEM":"UTC","ELEMENT_SET_NO":"999","MEAN_ELEMENT_THEORY":"SGP4","APOAPSIS":"548.785","ECCENTRICITY":"0.00023140","NORAD_CAT_ID":"45415","PERIAPSIS":"545.580","COUNTRY_CODE":"US","FILE":"3466271","MEAN_MOTION_DDOT":"0.0000000000000","BSTAR":"0.00083940000000"},{"OBJECT_ID":"2020-019BJ","MEAN_ELEMENT_THEORY":"SGP4","TIME_SYSTEM":"UTC","ELEMENT_SET_NO":"999","GP_ID":"204625501","SEMIMAJOR_AXIS":"6925.358","MEAN_MOTION_DOT":"0.00003469","SITE":"AFETR","PERIAPSIS":"546.304","COUNTRY_CODE":"US","FILE":"3466271","MEAN_MOTION_DDOT":"0.0000000000000","BSTAR":"0.00025169000000","APOAPSIS":"548.142","ECCENTRICITY":"0.00013270","NORAD_CAT_ID":"45416","REV_AT_EPOCH":"12142","LAUNCH_DATE":"2020-03-18","INCLINATION":"53.0526","CLASSIFICATION_TYPE":"U","MEAN_MOTION":"15.06396889","TLE_LINE2":"2 45416  53.0526 225.0256 0001327  74.8929 285.2207 15.06396889121428","EPOCH":"2022-05-26T17:15:50.920704","DECAY_DATE":null,"OBJECT_TYPE":"PAYLOAD","EPHEMERIS_TYPE":"0","RA_OF_ASC_NODE":"225.0256","MEAN_ANOMALY":"285.2207","OBJECT_NAME":"STARLINK-1318","PERIOD":"95.592","CENTER_NAME":"EARTH","RCS_SIZE":"LARGE","TLE_LINE1":"1 45416U 20019BJ  22146.71933936  .00003469  00000-0  25169-3 0  9996","ARG_OF_PERICENTER":"74.8929","REF_FRAME":"TEME"},{"PERIOD":"95.593","CENTER_NAME":"EARTH","TLE_LINE1":"1 45417U 20019BK  22146.79029982 -.00000599  00000-0 -21333-4 0  9995","RCS_SIZE":"LARGE","ARG_OF_PERICENTER":"78.7146","REF_FRAME":"TEME","EPHEMERIS_TYPE":"0","OBJECT_TYPE":"PAYLOAD","MEAN_ANOMALY":"281.4012","RA_OF_ASC_NODE":"254.6911","OBJECT_NAME":"STARLINK-1286","MEAN_MOTION":"15.06383251","TLE_LINE2":"2 45417  53.0534 254.6911 0001505  78.7146 281.4012 15.06383251121281","DECAY_DATE":null,"EPOCH":"2022-05-26T18:58:01.904448","REV_AT_EPOCH":"12128","LAUNCH_DATE":"2020-03-18","CLASSIFICATION_TYPE":"U","INCLINATION":"53.0534","ECCENTRICITY":"0.00015050","APOAPSIS":"548.307","NORAD_CAT_ID":"45417","FILE":"3466271","PERIAPSIS":"546.223","COUNTRY_CODE":"US","BSTAR":"-0.00002133300000","MEAN_MOTION_DDOT":"0.0000000000000","SEMIMAJOR_AXIS":"6925.400","GP_ID":"204625752","SITE":"AFETR","MEAN_MOTION_DOT":"-0.00000599","OBJECT_ID":"2020-019BK","MEAN_ELEMENT_THEORY":"SGP4","ELEMENT_SET_NO":"999","TIME_SYSTEM":"UTC"},{"MEAN_MOTION_DOT":"0.00016054","SITE":"AFETR","SEMIMAJOR_AXIS":"6927.865","GP_ID":"204602011","OBJECT_ID":"2020-019BL","TIME_SYSTEM":"UTC","ELEMENT_SET_NO":"999","MEAN_ELEMENT_THEORY":"SGP4","ECCENTRICITY":"0.00002620","APOAPSIS":"549.911","NORAD_CAT_ID":"45418","COUNTRY_CODE":"US","PERIAPSIS":"549.548","FILE":"3466011","MEAN_MOTION_DDOT":"0.0000000000000","BSTAR":"0.00111850000000","TLE_LINE2":"2 45418  52.9991 276.2715 0000262  11.2574 348.8420 15.05579352120687","MEAN_MOTION":"15.05579352","EPOCH":"2022-05-26T19:08:39.107040","DECAY_DATE":null,"LAUNCH_DATE":"2020-03-18","REV_AT_EPOCH":"12068","CLASSIFICATION_TYPE":"U","INCLINATION":"52.9991","CENTER_NAME":"EARTH","PERIOD":"95.644","TLE_LINE1":"1 45418U 20019BL  22146.79767485  .00016054  00000-0  11185-2 0  9996","RCS_SIZE":"LARGE","ARG_OF_PERICENTER":"11.2574","REF_FRAME":"TEME","RA_OF_ASC_NODE":"276.2715","MEAN_ANOMALY":"348.8420","OBJECT_TYPE":"PAYLOAD","EPHEMERIS_TYPE":"0","OBJECT_NAME":"STARLINK-1299"},{"MEAN_MOTION_DOT":"0.00000741","SITE":"AFETR","GP_ID":"204624750","SEMIMAJOR_AXIS":"6925.363","OBJECT_ID":"2020-019BM","TIME_SYSTEM":"UTC","ELEMENT_SET_NO":"999","MEAN_ELEMENT_THEORY":"SGP4","ECCENTRICITY":"0.00014410","APOAPSIS":"548.226","NORAD_CAT_ID":"45419","PERIAPSIS":"546.230","COUNTRY_CODE":"US","FILE":"3466271","MEAN_MOTION_DDOT":"0.0000000000000","BSTAR":"0.00006862800000","TLE_LINE2":"2 45419  53.0562 255.3153 0001441  82.1502 277.9650 15.06395372121010","MEAN_MOTION":"15.06395372","EPOCH":"2022-05-26T15:41:38.522112","DECAY_DATE":null,"LAUNCH_DATE":"2020-03-18","REV_AT_EPOCH":"12101","CLASSIFICATION_TYPE":"U","INCLINATION":"53.0562","CENTER_NAME":"EARTH","PERIOD":"95.592","RCS_SIZE":"LARGE","TLE_LINE1":"1 45419U 20019BM  22146.65391808  .00000741  00000-0  68628-4 0  9996","ARG_OF_PERICENTER":"82.1502","REF_FRAME":"TEME","RA_OF_ASC_NODE":"255.3153","MEAN_ANOMALY":"277.9650","OBJECT_TYPE":"PAYLOAD","EPHEMERIS_TYPE":"0","OBJECT_NAME":"STARLINK-1308"},{"EPHEMERIS_TYPE":"0","OBJECT_TYPE":"PAYLOAD","MEAN_ANOMALY":"299.7072","RA_OF_ASC_NODE":"194.5609","OBJECT_NAME":"STARLINK-1329","PERIOD":"95.592","CENTER_NAME":"EARTH","RCS_SIZE":"LARGE","TLE_LINE1":"1 45531U 20025A   22146.82161479  .00000609  00000-0  59778-4 0  9995","REF_FRAME":"TEME","ARG_OF_PERICENTER":"60.4072","REV_AT_EPOCH":"11606","LAUNCH_DATE":"2020-04-22","CLASSIFICATION_TYPE":"U","INCLINATION":"53.0538","MEAN_MOTION":"15.06404678","TLE_LINE2":"2 45531  53.0538 194.5609 0001557  60.4072 299.7072 15.06404678116066","DECAY_DATE":null,"EPOCH":"2022-05-26T19:43:07.517856","FILE":"3465689","COUNTRY_CODE":"US","PERIAPSIS":"546.121","BSTAR":"0.00005977800000","MEAN_MOTION_DDOT":"0.0000000000000","APOAPSIS":"548.277","ECCENTRICITY":"0.00015570","NORAD_CAT_ID":"45531","OBJECT_ID":"2020-025A","MEAN_ELEMENT_THEORY":"SGP4","ELEMENT_SET_NO":"999","TIME_SYSTEM":"UTC","GP_ID":"204593360","SEMIMAJOR_AXIS":"6925.334","SITE":"AFETR","MEAN_MOTION_DOT":"0.00000609"},{"OBJECT_ID":"2020-025B","TIME_SYSTEM":"UTC","ELEMENT_SET_NO":"999","MEAN_ELEMENT_THEORY":"SGP4","MEAN_MOTION_DOT":"0.00001986","SITE":"AFETR","GP_ID":"204625513","SEMIMAJOR_AXIS":"6925.346","PERIAPSIS":"546.010","COUNTRY_CODE":"US","FILE":"3466271","MEAN_MOTION_DDOT":"0.0000000000000","BSTAR":"0.00015221000000","ECCENTRICITY":"0.00017340","APOAPSIS":"548.412","NORAD_CAT_ID":"45532","LAUNCH_DATE":"2020-04-22","REV_AT_EPOCH":"11666","CLASSIFICATION_TYPE":"U","INCLINATION":"53.0550","TLE_LINE2":"2 45532  53.0550 194.5092 0001734  65.8619 294.2551 15.06400751116666","MEAN_MOTION":"15.06400751","EPOCH":"2022-05-26T19:59:03.615936","DECAY_DATE":null,"RA_OF_ASC_NODE":"194.5092","MEAN_ANOMALY":"294.2551","OBJECT_TYPE":"PAYLOAD","EPHEMERIS_TYPE":"0","OBJECT_NAME":"STARLINK-1338","CENTER_NAME":"EARTH","PERIOD":"95.592","TLE_LINE1":"1 45532U 20025B   22146.83268074  .00001986  00000-0  15221-3 0  9999","RCS_SIZE":"LARGE","ARG_OF_PERICENTER":"65.8619","REF_FRAME":"TEME"}];
